ONEWEB-0463             
1 51650U 22012AE  22321.25001157  .00000014  00000+0  00000+0 0  9998
2 51650  87.9377 265.7593 0000825 348.8909 288.6704 13.36765606 42715
ONEWEB-0464             
1 51651U 22012AF  22321.25001157  .00025018  00000+0  71464-1 0  9994
2 51651  87.8733 296.2254 0001878 106.0448 217.7075 13.10350471 39324
ONEWEB-0468             
1 51652U 22012AG  22321.25001157  .00024218  00000+0  69180-1 0  9998
2 51652  87.8741 296.2430 0001765  85.4502 208.8463 13.10351869 39308
ONEWEB-0473             
1 51653U 22012AH  22321.25001157  .00026152  00000+0  74695-1 0  9995
2 51653  87.8691 296.2400 0001624 101.3870 259.0857 13.10351044 39311
ONEWEB-0474             
1 51654U 22012AJ  22321.25001157  .00027114  00000+0  77434-1 0  9999
2 51654  87.8730 296.2232 0001852 104.5755 292.5154 13.10352446 39295
ONEWEB-0475             
1 51655U 22012AK  22321.25001157  .00000014  00000+0  00000+0 0  9993
2 51655  87.9263 265.7450 0000692 203.8121  32.6520 13.38745503 42713
ONEWEB-0490             
1 54113U 22138A   22320.91675926 -.00973895  00000+0 -14044+0 0  9998
2 54113  87.4492 208.7718 0012158 189.0524   8.6742 14.79449976  1300
ONEWEB-0492             
1 54114U 22138B   22321.25001157 -.00034601  00000+0 -47219-2 0  9992
2 54114  87.4444 208.6734 0013237 193.6637 288.8717 14.78904501  4654
ONEWEB-0495             
1 54115U 22138C   22321.25001157 -.01021363  00000+0 -16267+0 0  9991
2 54115  87.4391 208.6939 0013514 213.8665 136.0191 14.74880102  4653
ONEWEB-0497             
1 54116U 22138D   22320.91675926 -.00978566  00000+0 -14874+0 0  9992
2 54116  87.4435 208.7888 0014320 199.5936 273.4314 14.77216144  1308
ONEWEB-0499             
1 54117U 22138E   22321.25001157 -.00993957  00000+0 -15028+0 0  9993
2 54117  87.4483 208.6759 0013299 191.5720 291.9826 14.77504357  4655
ONEWEB-0500             
1 54118U 22138F   22321.25001157 -.00976185  00000+0 -13788+0 0  9999
2 54118  87.4525 208.6555 0010529 185.0331  53.0845 14.80346189  4666
ONEWEB-0501             
1 54119U 22138G   22320.91675926 -.00935299  00000+0 -14358+0 0  9998
2 54119  87.4415 208.7821 0014094 204.5136 233.3045 14.76659507  1302
ONEWEB-0502             
1 54120U 22138H   22320.91675926 -.00972648  00000+0 -13818+0 0  9999
2 54120  87.4499 208.7676 0011386 185.8792  39.2729 14.80081951  1303
ONEWEB-0503             
1 54121U 22138J   22320.91675926 -.00977101  00000+0 -14428+0 0  9997
2 54121  87.4462 208.7759 0013449 193.0481 326.7777 14.78446769  1300
ONEWEB-0504             
1 54122U 22138K   22321.16667824 -.00933400  00000+0 -13260+0 0  9991
2 54122  87.4522 208.6905 0010506 185.6111 313.4177 14.79969377  4641
ONEWEB-0505             
1 54123U 22138L   22321.25001157 -.00963694  00000+0 -15317+0 0  9996
2 54123  87.4412 208.6809 0013701 210.1244 157.9728 14.75276336  4650
ONEWEB-0506             
1 54124U 22138M   22321.25001157 -.00785370  00000+0 -12271+0 0  9996
2 54124  87.4424 208.6861 0015343 210.7091 176.4197 14.75854489  4659
ONEWEB-0507             
1 54125U 22138N   22321.25001157 -.00969953  00000+0 -13481+0 0  9992
2 54125  87.4541 208.6529 0010184 187.1860  82.7888 14.81003320  4664
ONEWEB-0508             
1 54126U 22138P   22321.25001157 -.00981576  00000+0 -14338+0 0  9990
2 54126  87.4514 208.6684 0012141 190.1417 343.7445 14.78934185  4661
ONEWEB-0509             
1 54127U 22138Q   22320.91675926 -.00945162  00000+0 -14411+0 0  9997
2 54127  87.4404 208.7913 0014026 202.6645 253.9688 14.76981095  1301
ONEWEB-0510             
1 54128U 22138R   22321.25001157 -.00034295  00000+0 -34172-2 0  9990
2 54128  87.1974 208.4568 0009418 202.8146 203.1582 14.91866499  4660
ONEWEB-0511             
1 54129U 22138S   22321.25001157 -.00984507  00000+0 -14212+0 0  9991
2 54129  87.4491 208.6653 0011493 184.7460  20.1408 14.79447786  4662
ONEWEB-0512             
1 54130U 22138T   22320.91675926 -.00990287  00000+0 -15133+0 0  9991
2 54130  87.4418 208.7771 0014154 201.4643 260.2504 14.77029143  1305
ONEWEB-0513             
1 54131U 22138U   22321.25001157 -.01182824  00000+0 -37377+0 0  9994
2 54131  87.5045 208.9727 0009929 202.2556 132.3482 14.43593044  4612
ONEWEB-0514             
1 54132U 22138V   22321.25001157 -.00984545  00000+0 -14176+0 0  9996
2 54132  87.4499 208.6580 0011289 187.2451  27.0399 14.79558477  4669
ONEWEB-0515             
1 54133U 22138W   22321.25001157 -.00034758  00000+0 -34844-2 0  9996
2 54133  87.1819 208.4459 0009882 194.0982 190.9811 14.91623426  4667
ONEWEB-0516             
1 54134U 22138X   22321.25001157 -.00979738  00000+0 -14208+0 0  9992
2 54134  87.4505 208.6652 0011337 186.2576   6.6854 14.79242456  4666
ONEWEB-0517             
1 54135U 22138Y   22321.25001157 -.00980756  00000+0 -14517+0 0  9998
2 54135  87.4476 208.6669 0012657 190.9000 320.9270 14.78367171  4667
ONEWEB-0518             
1 54136U 22138Z   22320.91675926 -.00981572  00000+0 -14750+0 0  9998
2 54136  87.4466 208.7830 0013713 197.8502 290.3941 14.77718415  1308
ONEWEB-0519             
1 54137U 22138AA  22321.25001157 -.00716098  00000+0 -99704-1 0  9999
2 54137  87.4534 208.6602 0010823 186.4151  58.4259 14.80520481  4669
ONEWEB-0520             
1 54138U 22138AB  22321.25001157 -.00981158  00000+0 -14517+0 0  9998
2 54138  87.4512 208.6718 0012960 189.8711 331.0919 14.78381720  4668
ONEWEB-0521             
1 54139U 22138AC  22321.25001157 -.00961504  00000+0 -15463+0 0  9993
2 54139  87.4384 208.6878 0013551 215.4624 122.6381 14.74768140  4656
ONEWEB-0522             
1 54140U 22138AD  22321.25001157 -.00957180  00000+0 -14810+0 0  9995
2 54140  87.4434 208.6851 0014775 202.9282 216.1003 14.76385921  4659
ONEWEB-0523             
1 54141U 22138AE  22320.91675926 -.00022500  00000+0 -22433-2 0  9991
2 54141  87.1919 208.5757 0009192 203.6298 209.1831 14.91794236  1301
ONEWEB-0524             
1 54142U 22138AF  22321.25001157 -.00034463  00000+0 -34415-2 0  9993
2 54142  87.1874 208.4464 0009235 200.7548 197.2557 14.91780686  4668
ONEWEB-0525             
1 54143U 22138AG  22321.25001157 -.00954286  00000+0 -14287+0 0  9990
2 54143  87.4478 208.6747 0012695 190.6350 308.7723 14.77801053  4660
ONEWEB-0526             
1 54144U 22138AH  22320.91675926 -.00992761  00000+0 -15336+0 0  9990
2 54144  87.4404 208.7867 0014507 206.5264 227.7623 14.76572469  1301
ONEWEB-0529             
1 54145U 22138AJ  22321.25001157 -.00988950  00000+0 -15135+0 0  9990
2 54145  87.4466 208.6730 0014243 197.4641 255.1386 14.76960695  4656
ONEWEB-0531             
1 54146U 22138AK  22321.25001157 -.00034582  00000+0 -34611-2 0  9997
2 54146  87.1848 208.4605 0009321 200.9435 189.7357 14.91691989  4664
ONEWEB-0535             
1 54147U 22138AL  22320.91675926 -.00963345  00000+0 -13207+0 0  9994
2 54147  87.4512 208.7631 0010277 186.4609  84.0004 14.81551979  1308
